 HQ AFSPC Sgp4Prop DLL - Version: v8.0 - Build: Nov 05 2020 - Platform: Windows 32-bit                                         


EPHEMERIS GENERATED BY SGP4 USING THE WGS-72 EARTH MODEL
COORDINATE FRAME=TRUE EQUATOR AND MEAN EQUINOX OF EPOCH
USING THE FK5 MEAN OF J2000 TIME AND REFERENCE FRAME

INPUT FILE = input\sgp4_val.inp
Start Time =         0.0000 min from epoch
Stop Time  =     43200.0000 min from epoch
Step size  =      2700.0000 min


     TSINCE (MIN)     N (REVS/DAY)          ECC (-)        INC (DEG)       NODE (DEG)      OMEGA (DEG)         MA (DEG)


 1 90001U SGP4-VAL 93051.47568104 +.00000184  00000 0  00000 0 0 0814                                                                                                                                                                                                                                                                                                                                                                                                                                                           
 2 90001   0.0221 182.4922 0000720  45.6036 131.8822  1.0027132801199                                                                                                                                                                                                                                                                                                                                                                                                                                                           

         0.0000000        1.0026760        0.0000720        0.0221000      182.4922000       45.6036000      131.8822000
      2700.0000000        1.0026851        0.0000720        0.0212678      182.4670480       45.6612287       88.6972712
      5400.0000000        1.0026943        0.0000720        0.0204356      182.4418960       45.7188575       45.5185031
      8100.0000000        1.0027034        0.0000720        0.0196034      182.4167440       45.7764862        2.3458957
     10800.0000000        1.0027125        0.0000720        0.0187712      182.3915920       45.8341149      319.1794486
     13500.0000000        1.0027217        0.0000720        0.0179390      182.3664399       45.8917437      276.0191610
     16200.0000000        1.0027308        0.0000720        0.0171068      182.3412879       45.9493724      232.8650322
     18900.0000000        1.0027399        0.0000720        0.0162746      182.3161359       46.0070011      189.7170611
     21600.0000000        1.0027490        0.0000720        0.0154424      182.2909839       46.0646299      146.5752465
     24300.0000000        1.0027581        0.0000720        0.0146102      182.2658319       46.1222586      103.4395869
     27000.0000000        1.0027672        0.0000721        0.0137779      182.2406799       46.1798874       60.3100806
     29700.0000000        1.0027764        0.0000721        0.0129457      182.2155279       46.2375161       17.1867255
     32400.0000000        1.0027855        0.0000721        0.0121135      182.1903759       46.2951448      334.0695195
     35100.0000000        1.0027946        0.0000721        0.0112813      182.1652239       46.3527736      290.9584601
     37800.0000000        1.0028037        0.0000721        0.0104491      182.1400718       46.4104023      247.8535446
     40500.0000000        1.0028128        0.0000721        0.0096169      182.1149198       46.4680310      204.7547698
     43200.0000000        1.0028219        0.0000721        0.0087847      182.0897678       46.5256598      161.6621325


 1 90002U SGP4-VAL 93051.59174492 +.00000136  00000 0  00000 0 0 0733                                                                                                                                                                                                                                                                                                                                                                                                                                                           
 2 90002   4.5700  71.6068 0014162  60.8451 299.2453  0.9654587100306                                                                                                                                                                                                                                                                                                                                                                                                                                                           

         0.0000000        0.9654249        0.0014162        4.5700000       71.6068000       60.8451000      299.2453000
      2700.0000000        0.9654304        0.0014161        4.5743562       71.5826251       60.9040864      230.9066080
      5400.0000000        0.9654382        0.0014160        4.5787125       71.5584502       60.9630729      162.5728094
      8100.0000000        0.9654423        0.0014159        4.5830687       71.5342753       61.0220593       94.2433486
     10800.0000000        0.9654403        0.0014158        4.5874250       71.5101004       61.0810457       25.9145956
     13500.0000000        0.9654344        0.0014157        4.5917812       71.4859255       61.1400321      317.5829257
     16200.0000000        0.9654287        0.0014157        4.5961375       71.4617506       61.1990186      249.2470674
     18900.0000000        0.9654268        0.0014156        4.6004937       71.4375757       61.2580050      180.9084592
     21600.0000000        0.9654300        0.0014155        4.6048500       71.4134008       61.3169914      112.5702853
     24300.0000000        0.9654369        0.0014154        4.6092062       71.3892259       61.3759779       44.2357551
     27000.0000000        0.9654431        0.0014153        4.6135625       71.3650510       61.4349643      335.9059891
     29700.0000000        0.9654436        0.0014152        4.6179187       71.3408761       61.4939507      267.5787234
     32400.0000000        0.9654373        0.0014151        4.6222750       71.3167012       61.5529371      199.2493865
     35100.0000000        0.9654287        0.0014150        4.6266312       71.2925262       61.6119236      130.9145799
     37800.0000000        0.9654246        0.0014149        4.6309875       71.2683513       61.6709100       62.5751060
     40500.0000000        0.9654281        0.0014148        4.6353437       71.2441764       61.7298964      354.2354339
     43200.0000000        0.9654359        0.0014147        4.6397000       71.2200015       61.7888829      285.8999449


 1 90003U SGP4-VAL 93051.45013393 +.00000064  00000 0  00000 0 0 0221                                                                                                                                                                                                                                                                                                                                                                                                                                                           
 2 90003  54.9131 182.6982 0017768 176.8444 183.1487  2.0055852401395                                                                                                                                                                                                                                                                                                                                                                                                                                                           

         0.0000000        2.0055861        0.0017768       54.9131000      182.6982000      176.8444000      183.1487000
      2700.0000000        2.0055861        0.0017768       54.9129980      182.6238069      176.8980950       96.9106313
      5400.0000000        2.0055861        0.0017768       54.9128960      182.5494137      176.9517901       10.6725626
      8100.0000000        2.0055861        0.0017769       54.9127941      182.4750206      177.0054851      284.4344939
     10800.0000000        2.0055861        0.0017769       54.9126921      182.4006274      177.0591802      198.1964252
     13500.0000000        2.0055861        0.0017769       54.9125901      182.3262343      177.1128752      111.9583565
     16200.0000000        2.0055861        0.0017769       54.9124881      182.2518412      177.1665702       25.7202878
     18900.0000000        2.0055861        0.0017770       54.9123862      182.1774480      177.2202653      299.4822191
     21600.0000000        2.0055861        0.0017770       54.9122842      182.1030549      177.2739603      213.2441505
     24300.0000000        2.0055861        0.0017770       54.9121822      182.0286617      177.3276553      127.0060818
     27000.0000000        2.0055861        0.0017770       54.9120802      181.9542686      177.3813504       40.7680131
     29700.0000000        2.0055861        0.0017770       54.9119783      181.8798755      177.4350454      314.5299444
     32400.0000000        2.0055861        0.0017771       54.9118763      181.8054823      177.4887405      228.2918757
     35100.0000000        2.0055861        0.0017771       54.9117743      181.7310892      177.5424355      142.0538070
     37800.0000000        2.0055861        0.0017771       54.9116723      181.6566960      177.5961305       55.8157383
     40500.0000000        2.0055861        0.0017771       54.9115704      181.5823029      177.6498256      329.5776696
     43200.0000000        2.0055861        0.0017771       54.9114684      181.5079098      177.7035206      243.3396009

